[{"OBJECT_NAME":"STARLINK-3395","OBJECT_ID":"2022-005AC","EPOCH":"2026-03-09T22:40:21.427680","MEAN_MOTION":15.08835564,"ECCENTRICITY":0.00012629,"INCLINATION":53.2174,"RA_OF_ASC_NODE":297.9767,"ARG_OF_PERICENTER":81.3781,"MEAN_ANOMALY":278.7354,"EPHEMERIS_TYPE":0,"CLASSIFICATION_TYPE":"U","NORAD_CAT_ID":51130,"ELEMENT_SET_NO":999,"REV_AT_EPOCH":22876,"BSTAR":2.8192551e-5,"MEAN_MOTION_DOT":1.61e-6,"MEAN_MOTION_DDOT":0},{"OBJECT_NAME":"FENGYUN 1C DEB","OBJECT_ID":"1999-025BTY","EPOCH":"2026-03-09T14:49:03.533664","MEAN_MOTION":15.05418076,"ECCENTRICITY":0.0035944,"INCLINATION":98.8793,"RA_OF_ASC_NODE":298.6402,"ARG_OF_PERICENTER":319.4464,"MEAN_ANOMALY":105.3063,"EPHEMERIS_TYPE":0,"CLASSIFICATION_TYPE":"U","NORAD_CAT_ID":31436,"ELEMENT_SET_NO":999,"REV_AT_EPOCH":98178,"BSTAR":0.0045436,"MEAN_MOTION_DOT":0.00066638,"MEAN_MOTION_DDOT":0}]
